[
    {
        "Altitude(m)": 716955.0558991771,
        "Argument of Periapsis(deg)": 0.007973084830638947,
        "Eccentricity": 0.0,
        "Inclination(deg)": 45.0,
        "Latitude(deg)": -42.91280793868603,
        "Longitude(deg)": 51.84600110452088,
        "Mean Anomaly(deg)": -73.74494834676348,
        "RAAN(deg)": 219.99247364097926,
        "Satellite Name": "Constellation 1 985",
        "Satellite Number": 985,
        "Semi-Major Axis(m)": 7083131.272910544,
        "Time(s)": 133
    },
    {
        "Altitude(m)": 716948.2764631349,
        "Argument of Periapsis(deg)": 0.008033032836884352,
        "Eccentricity": 0.0,
        "Inclination(deg)": 45.0,
        "Latitude(deg)": -42.89644569585661,
        "Longitude(deg)": 51.921303280863015,
        "Mean Anomaly(deg)": -73.68424720651353,
        "RAAN(deg)": 219.99241705181367,
        "Satellite Name": "Constellation 1 985",
        "Satellite Number": 985,
        "Semi-Major Axis(m)": 7083131.272910544,
        "Time(s)": 134
    },
    {
        "Altitude(m)": 716941.4740569713,
        "Argument of Periapsis(deg)": 0.008092980843129758,
        "Eccentricity": 0.0,
        "Inclination(deg)": 45.0,
        "Latitude(deg)": -42.88002835980041,
        "Longitude(deg)": 51.996563507620635,
        "Mean Anomaly(deg)": -73.62354606626366,
        "RAAN(deg)": 219.9923604626481,
        "Satellite Name": "Constellation 1 985",
        "Satellite Number": 985,
        "Semi-Major Axis(m)": 7083131.272910544,
        "Time(s)": 135
    },
    {
        "Altitude(m)": 716934.6487056676,
        "Argument of Periapsis(deg)": 0.008152928849375162,
        "Eccentricity": 0.0,
        "Inclination(deg)": 45.0,
        "Latitude(deg)": -42.86355599051212,
        "Longitude(deg)": 52.071781690436865,
        "Mean Anomaly(deg)": -73.56284492601372,
        "RAAN(deg)": 219.99230387348254,
        "Satellite Name": "Constellation 1 985",
        "Satellite Number": 985,
        "Semi-Major Axis(m)": 7083131.272910544,
        "Time(s)": 136
    },
    {
        "Altitude(m)": 716927.8004342929,
        "Argument of Periapsis(deg)": 0.008212876855620568,
        "Eccentricity": 0.0,
        "Inclination(deg)": 45.0,
        "Latitude(deg)": -42.847028648106004,
        "Longitude(deg)": 52.14695773551232,
        "Mean Anomaly(deg)": -73.50214378576386,
        "RAAN(deg)": 219.992247284317,
        "Satellite Name": "Constellation 1 985",
        "Satellite Number": 985,
        "Semi-Major Axis(m)": 7083131.272910544,
        "Time(s)": 137
    },
    {
        "Altitude(m)": 716920.9292680018,
        "Argument of Periapsis(deg)": 0.008272824861865974,
        "Eccentricity": 0.0,
        "Inclination(deg)": 45.0,
        "Latitude(deg)": -42.8304463928147,
        "Longitude(deg)": 52.222091549606226,
        "Mean Anomaly(deg)": -73.44144264551386,
        "RAAN(deg)": 219.9921906951514,
        "Satellite Name": "Constellation 1 985",
        "Satellite Number": 985,
        "Semi-Major Axis(m)": 7083131.272910544,
        "Time(s)": 138
    },
    {
        "Altitude(m)": 716914.0352320266,
        "Argument of Periapsis(deg)": 0.00833277286811138,
        "Eccentricity": 0.0,
        "Inclination(deg)": 45.0,
        "Latitude(deg)": -42.81380928498851,
        "Longitude(deg)": 52.29718304003529,
        "Mean Anomaly(deg)": -73.38074150526413,
        "RAAN(deg)": 219.99213410598585,
        "Satellite Name": "Constellation 1 985",
        "Satellite Number": 985,
        "Semi-Major Axis(m)": 7083131.272910544,
        "Time(s)": 139
    },
    {
        "Altitude(m)": 716907.1183516893,
        "Argument of Periapsis(deg)": 0.008392720874356788,
        "Eccentricity": 0.0,
        "Inclination(deg)": 45.0,
        "Latitude(deg)": -42.79711738509433,
        "Longitude(deg)": 52.37223211467524,
        "Mean Anomaly(deg)": -73.32004036501414,
        "RAAN(deg)": 219.99207751682025,
        "Satellite Name": "Constellation 1 985",
        "Satellite Number": 985,
        "Semi-Major Axis(m)": 7083131.272910544,
        "Time(s)": 140
    },
    {
        "Altitude(m)": 716900.178652387,
        "Argument of Periapsis(deg)": 0.008452668880602192,
        "Eccentricity": 0.0,
        "Inclination(deg)": 45.0,
        "Latitude(deg)": -42.78037075371527,
        "Longitude(deg)": 52.44723851386213,
        "Mean Anomaly(deg)": -73.2593392247642,
        "RAAN(deg)": 219.9920209276547,
        "Satellite Name": "Constellation 1 985",
        "Satellite Number": 985,
        "Semi-Major Axis(m)": 7083131.272910544,
        "Time(s)": 141
    },
    {
        "Altitude(m)": 716893.2161596066,
        "Argument of Periapsis(deg)": 0.008512616886847598,
        "Eccentricity": 0.0,
        "Inclination(deg)": 45.0,
        "Latitude(deg)": -42.763569451548605,
        "Longitude(deg)": 52.52220248278069,
        "Mean Anomaly(deg)": -73.19863808451434,
        "RAAN(deg)": 219.99196433848914,
        "Satellite Name": "Constellation 1 985",
        "Satellite Number": 985,
        "Semi-Major Axis(m)": 7083131.272910544,
        "Time(s)": 142
    },
    {
        "Altitude(m)": 716886.2308989186,
        "Argument of Periapsis(deg)": 0.008572564893093004,
        "Eccentricity": 0.0,
        "Inclination(deg)": 45.0,
        "Latitude(deg)": -42.746713539406336,
        "Longitude(deg)": 52.59712376288348,
        "Mean Anomaly(deg)": -73.13793694426448,
        "RAAN(deg)": 219.99190774932356,
        "Satellite Name": "Constellation 1 985",
        "Satellite Number": 985,
        "Semi-Major Axis(m)": 7083131.272910544,
        "Time(s)": 143
    },
    {
        "Altitude(m)": 716879.2228959675,
        "Argument of Periapsis(deg)": 0.008632512899338408,
        "Eccentricity": 0.0,
        "Inclination(deg)": 45.0,
        "Latitude(deg)": -42.729803078213294,
        "Longitude(deg)": 52.672002264277744,
        "Mean Anomaly(deg)": -73.07723580401452,
        "RAAN(deg)": 219.991851160158,
        "Satellite Name": "Constellation 1 985",
        "Satellite Number": 985,
        "Semi-Major Axis(m)": 7083131.272910544,
        "Time(s)": 144
    },
    {
        "Altitude(m)": 716872.1921764903,
        "Argument of Periapsis(deg)": 0.008692460905583814,
        "Eccentricity": 0.0,
        "Inclination(deg)": 45.0,
        "Latitude(deg)": -42.71283812900669,
        "Longitude(deg)": 52.74683789762814,
        "Mean Anomaly(deg)": -73.01653466376459,
        "RAAN(deg)": 219.99179457099245,
        "Satellite Name": "Constellation 1 985",
        "Satellite Number": 985,
        "Semi-Major Axis(m)": 7083131.272910544,
        "Time(s)": 145
    },
    {
        "Altitude(m)": 716865.1387662952,
        "Argument of Periapsis(deg)": 0.00875240891182922,
        "Eccentricity": 0.0,
        "Inclination(deg)": 45.0,
        "Latitude(deg)": -42.69581875293511,
        "Longitude(deg)": 52.821630574157226,
        "Mean Anomaly(deg)": -72.9558335235148,
        "RAAN(deg)": 219.99173798182684,
        "Satellite Name": "Constellation 1 985",
        "Satellite Number": 985,
        "Semi-Major Axis(m)": 7083131.272910544,
        "Time(s)": 146
    },
    {
        "Altitude(m)": 716858.0626912856,
        "Argument of Periapsis(deg)": 0.008812356918074627,
        "Eccentricity": 0.0,
        "Inclination(deg)": 45.0,
        "Latitude(deg)": -42.67874501125747,
        "Longitude(deg)": 52.896380205645556,
        "Mean Anomaly(deg)": -72.89513238326484,
        "RAAN(deg)": 219.9916813926613,
        "Satellite Name": "Constellation 1 985",
        "Satellite Number": 985,
        "Semi-Major Axis(m)": 7083131.272910544,
        "Time(s)": 147
    },
    {
        "Altitude(m)": 716850.9639774358,
        "Argument of Periapsis(deg)": 0.008872304924320031,
        "Eccentricity": 0.0,
        "Inclination(deg)": 45.0,
        "Latitude(deg)": -42.66161696534259,
        "Longitude(deg)": 52.97108653633394,
        "Mean Anomaly(deg)": -72.83443124301488,
        "RAAN(deg)": 219.9916248034957,
        "Satellite Name": "Constellation 1 985",
        "Satellite Number": 985,
        "Semi-Major Axis(m)": 7083131.272910544,
        "Time(s)": 148
    },
    {
        "Altitude(m)": 716843.8426508134,
        "Argument of Periapsis(deg)": 0.008932252930565437,
        "Eccentricity": 0.0,
        "Inclination(deg)": 45.0,
        "Latitude(deg)": -42.64443467666744,
        "Longitude(deg)": 53.04574981531089,
        "Mean Anomaly(deg)": -72.77373010276501,
        "RAAN(deg)": 219.99156821433016,
        "Satellite Name": "Constellation 1 985",
        "Satellite Number": 985,
        "Semi-Major Axis(m)": 7083131.272910544,
        "Time(s)": 149
    },
    {
        "Altitude(m)": 716836.6987375562,
        "Argument of Periapsis(deg)": 0.008992200936810843,
        "Eccentricity": 0.0,
        "Inclination(deg)": 45.0,
        "Latitude(deg)": -42.62719820681728,
        "Longitude(deg)": 53.12036978793203,
        "Mean Anomaly(deg)": -72.71302896251518,
        "RAAN(deg)": 219.9915116251646,
        "Satellite Name": "Constellation 1 985",
        "Satellite Number": 985,
        "Semi-Major Axis(m)": 7083131.272910544,
        "Time(s)": 150
    },
    {
        "Altitude(m)": 716829.5322638921,
        "Argument of Periapsis(deg)": 0.009052148943056249,
        "Eccentricity": 0.0,
        "Inclination(deg)": 45.0,
        "Latitude(deg)": -42.60990761748419,
        "Longitude(deg)": 53.194946368206764,
        "Mean Anomaly(deg)": -72.65232782226529,
        "RAAN(deg)": 219.991455035999,
        "Satellite Name": "Constellation 1 985",
        "Satellite Number": 985,
        "Semi-Major Axis(m)": 7083131.272910544,
        "Time(s)": 151
    }
]